[{"OBJECT_NAME":"KINEIS-1C","OBJECT_ID":"2024-114C","EPOCH":"2026-03-10T00:10:11.544384","MEAN_MOTION":14.80409337,"ECCENTRICITY":0.00022495,"INCLINATION":97.9945,"RA_OF_ASC_NODE":93.4647,"ARG_OF_PERICENTER":117.2178,"MEAN_ANOMALY":242.9263,"EPHEMERIS_TYPE":0,"CLASSIFICATION_TYPE":"U","NORAD_CAT_ID":60081,"ELEMENT_SET_NO":999,"REV_AT_EPOCH":9270,"BSTAR":0.00020502578,"MEAN_MOTION_DOT":1.513e-5,"MEAN_MOTION_DDOT":0},{"OBJECT_NAME":"FENGYUN 1C DEB","OBJECT_ID":"1999-025ZC","EPOCH":"2026-03-09T15:28:17.967360","MEAN_MOTION":14.57666011,"ECCENTRICITY":0.0106991,"INCLINATION":97.2281,"RA_OF_ASC_NODE":310.9797,"ARG_OF_PERICENTER":101.5646,"MEAN_ANOMALY":313.5069,"EPHEMERIS_TYPE":0,"CLASSIFICATION_TYPE":"U","NORAD_CAT_ID":30291,"ELEMENT_SET_NO":999,"REV_AT_EPOCH":98973,"BSTAR":0.0021478,"MEAN_MOTION_DOT":0.00010571,"MEAN_MOTION_DDOT":0}]
